SITRO-TD-3              
1 67270U 25313Y   26024.46859651  .00017283  00000+0  79109-3 0  9993
2 67270  97.4097 101.4741 0016225 144.8403 215.3906 15.20455297  4097
2025-313Z               
1 67271U 25313Z   26024.47068022  .00008432  00000+0  39136-3 0  9991
2 67271  97.4092 101.4612 0016390 141.0831 219.1587 15.20156322  4091
2025-313AA              
1 67272U 25313AA  26024.20256983  .00019256  00000+0  87542-3 0  9998
2 67272  97.4096 101.2077 0015918 146.0997 214.1260 15.20670968  4058
2025-313AB              
1 67273U 25313AB  26024.47075072  .00006189  00000+0  28878-3 0  9994
2 67273  97.4110 101.4665 0015359 149.1794 211.0346 15.20101378  4098
2025-313AC              
1 67274U 25313AC  26024.46833767  .00012789  00000+0  58805-3 0  9993
2 67274  97.4085 101.4697 0016049 144.2621 215.9692 15.20368855  4099
2025-313AD              
1 67275U 25313AD  26024.46731045  .00013560  00000+0  62218-3 0  9991
2 67275  97.4059 101.4625 0015214 146.9225 213.2965 15.20440803  4092
2025-313AE              
1 67276U 25313AE  26024.46729251  .00013093  00000+0  60100-3 0  9997
2 67276  97.4065 101.4635 0015191 146.9742 213.2445 15.20435215  4093
2025-313AF              
1 67277U 25313AF  26024.46776832  .00012181  00000+0  56026-3 0  9994
2 67277  97.4067 101.4641 0015201 146.9440 213.2748 15.20383707  4094
2025-313AG              
1 67278U 25313AG  26024.46744214  .00011681  00000+0  53662-3 0  9991
2 67278  97.4069 101.4654 0015039 147.1877 213.0295 15.20438173  4102
GALAPAGOS-UTE-SWSU      
1 67279U 25313AH  26024.46635064  .00013505  00000+0  61838-3 0  9995
2 67279  97.4079 101.4705 0015680 143.9549 216.2747 15.20504538  4097
2025-313AJ              
1 67280U 25313AJ  26024.19758754  .00009883  00000+0  45072-3 0  9995
2 67280  97.4150 101.2312 0014614 141.7279 218.4996 15.20737610  4058
2025-313AK              
1 67281U 25313AK  26024.45917676  .00009606  00000+0  43717-3 0  9992
2 67281  97.4034 101.4620 0013356 139.8580 220.3645 15.20834648  4095
