CCSDS_OMM_VERS = 2.0
CREATION_DATE  = 
ORIGINATOR     = 

OBJECT_NAME    = SITRO-TD-3
OBJECT_ID      = 2025-313Y
CENTER_NAME    = EARTH
REF_FRAME      = TEME
TIME_SYSTEM    = UTC
MEAN_ELEMENT_THEORY = SGP/SGP4

EPOCH          = 2026-01-24T11:14:46.738464
MEAN_MOTION    = 15.20455297
ECCENTRICITY   = .0016225
INCLINATION    = 97.4097
RA_OF_ASC_NODE = 101.4741
ARG_OF_PERICENTER = 144.8403
MEAN_ANOMALY   = 215.3906

EPHEMERIS_TYPE = 0
CLASSIFICATION_TYPE = U
NORAD_CAT_ID   = 67270
ELEMENT_SET_NO = 999
REV_AT_EPOCH   = 409
BSTAR          = .79109E-3
MEAN_MOTION_DOT = .17283E-3
MEAN_MOTION_DDOT = 0

CCSDS_OMM_VERS = 2.0
CREATION_DATE  = 
ORIGINATOR     = 

OBJECT_NAME    = 2025-313Z
OBJECT_ID      = 2025-313Z
CENTER_NAME    = EARTH
REF_FRAME      = TEME
TIME_SYSTEM    = UTC
MEAN_ELEMENT_THEORY = SGP/SGP4

EPOCH          = 2026-01-24T11:17:46.771008
MEAN_MOTION    = 15.20156322
ECCENTRICITY   = .001639
INCLINATION    = 97.4092
RA_OF_ASC_NODE = 101.4612
ARG_OF_PERICENTER = 141.0831
MEAN_ANOMALY   = 219.1587

EPHEMERIS_TYPE = 0
CLASSIFICATION_TYPE = U
NORAD_CAT_ID   = 67271
ELEMENT_SET_NO = 999
REV_AT_EPOCH   = 409
BSTAR          = .39136E-3
MEAN_MOTION_DOT = .8432E-4
MEAN_MOTION_DDOT = 0

CCSDS_OMM_VERS = 2.0
CREATION_DATE  = 
ORIGINATOR     = 

OBJECT_NAME    = 2025-313AA
OBJECT_ID      = 2025-313AA
CENTER_NAME    = EARTH
REF_FRAME      = TEME
TIME_SYSTEM    = UTC
MEAN_ELEMENT_THEORY = SGP/SGP4

EPOCH          = 2026-01-24T04:51:42.033312
MEAN_MOTION    = 15.20670968
ECCENTRICITY   = .0015918
INCLINATION    = 97.4096
RA_OF_ASC_NODE = 101.2077
ARG_OF_PERICENTER = 146.0997
MEAN_ANOMALY   = 214.1260

EPHEMERIS_TYPE = 0
CLASSIFICATION_TYPE = U
NORAD_CAT_ID   = 67272
ELEMENT_SET_NO = 999
REV_AT_EPOCH   = 405
BSTAR          = .87542E-3
MEAN_MOTION_DOT = .19256E-3
MEAN_MOTION_DDOT = 0

CCSDS_OMM_VERS = 2.0
CREATION_DATE  = 
ORIGINATOR     = 

OBJECT_NAME    = 2025-313AB
OBJECT_ID      = 2025-313AB
CENTER_NAME    = EARTH
REF_FRAME      = TEME
TIME_SYSTEM    = UTC
MEAN_ELEMENT_THEORY = SGP/SGP4

EPOCH          = 2026-01-24T11:17:52.862208
MEAN_MOTION    = 15.20101378
ECCENTRICITY   = .0015359
INCLINATION    = 97.4110
RA_OF_ASC_NODE = 101.4665
ARG_OF_PERICENTER = 149.1794
MEAN_ANOMALY   = 211.0346

EPHEMERIS_TYPE = 0
CLASSIFICATION_TYPE = U
NORAD_CAT_ID   = 67273
ELEMENT_SET_NO = 999
REV_AT_EPOCH   = 409
BSTAR          = .28878E-3
MEAN_MOTION_DOT = .6189E-4
MEAN_MOTION_DDOT = 0

CCSDS_OMM_VERS = 2.0
CREATION_DATE  = 
ORIGINATOR     = 

OBJECT_NAME    = 2025-313AC
OBJECT_ID      = 2025-313AC
CENTER_NAME    = EARTH
REF_FRAME      = TEME
TIME_SYSTEM    = UTC
MEAN_ELEMENT_THEORY = SGP/SGP4

EPOCH          = 2026-01-24T11:14:24.374688
MEAN_MOTION    = 15.20368855
ECCENTRICITY   = .0016049
INCLINATION    = 97.4085
RA_OF_ASC_NODE = 101.4697
ARG_OF_PERICENTER = 144.2621
MEAN_ANOMALY   = 215.9692

EPHEMERIS_TYPE = 0
CLASSIFICATION_TYPE = U
NORAD_CAT_ID   = 67274
ELEMENT_SET_NO = 999
REV_AT_EPOCH   = 409
BSTAR          = .58805E-3
MEAN_MOTION_DOT = .12789E-3
MEAN_MOTION_DDOT = 0

CCSDS_OMM_VERS = 2.0
CREATION_DATE  = 
ORIGINATOR     = 

OBJECT_NAME    = 2025-313AD
OBJECT_ID      = 2025-313AD
CENTER_NAME    = EARTH
REF_FRAME      = TEME
TIME_SYSTEM    = UTC
MEAN_ELEMENT_THEORY = SGP/SGP4

EPOCH          = 2026-01-24T11:12:55.622880
MEAN_MOTION    = 15.20440803
ECCENTRICITY   = .0015214
INCLINATION    = 97.4059
RA_OF_ASC_NODE = 101.4625
ARG_OF_PERICENTER = 146.9225
MEAN_ANOMALY   = 213.2965

EPHEMERIS_TYPE = 0
CLASSIFICATION_TYPE = U
NORAD_CAT_ID   = 67275
ELEMENT_SET_NO = 999
REV_AT_EPOCH   = 409
BSTAR          = .62218E-3
MEAN_MOTION_DOT = .1356E-3
MEAN_MOTION_DDOT = 0

CCSDS_OMM_VERS = 2.0
CREATION_DATE  = 
ORIGINATOR     = 

OBJECT_NAME    = 2025-313AE
OBJECT_ID      = 2025-313AE
CENTER_NAME    = EARTH
REF_FRAME      = TEME
TIME_SYSTEM    = UTC
MEAN_ELEMENT_THEORY = SGP/SGP4

EPOCH          = 2026-01-24T11:12:54.072864
MEAN_MOTION    = 15.20435215
ECCENTRICITY   = .0015191
INCLINATION    = 97.4065
RA_OF_ASC_NODE = 101.4635
ARG_OF_PERICENTER = 146.9742
MEAN_ANOMALY   = 213.2445

EPHEMERIS_TYPE = 0
CLASSIFICATION_TYPE = U
NORAD_CAT_ID   = 67276
ELEMENT_SET_NO = 999
REV_AT_EPOCH   = 409
BSTAR          = .601E-3
MEAN_MOTION_DOT = .13093E-3
MEAN_MOTION_DDOT = 0

CCSDS_OMM_VERS = 2.0
CREATION_DATE  = 
ORIGINATOR     = 

OBJECT_NAME    = 2025-313AF
OBJECT_ID      = 2025-313AF
CENTER_NAME    = EARTH
REF_FRAME      = TEME
TIME_SYSTEM    = UTC
MEAN_ELEMENT_THEORY = SGP/SGP4

EPOCH          = 2026-01-24T11:13:35.182848
MEAN_MOTION    = 15.20383707
ECCENTRICITY   = .0015201
INCLINATION    = 97.4067
RA_OF_ASC_NODE = 101.4641
ARG_OF_PERICENTER = 146.9440
MEAN_ANOMALY   = 213.2748

EPHEMERIS_TYPE = 0
CLASSIFICATION_TYPE = U
NORAD_CAT_ID   = 67277
ELEMENT_SET_NO = 999
REV_AT_EPOCH   = 409
BSTAR          = .56026E-3
MEAN_MOTION_DOT = .12181E-3
MEAN_MOTION_DDOT = 0

CCSDS_OMM_VERS = 2.0
CREATION_DATE  = 
ORIGINATOR     = 

OBJECT_NAME    = 2025-313AG
OBJECT_ID      = 2025-313AG
CENTER_NAME    = EARTH
REF_FRAME      = TEME
TIME_SYSTEM    = UTC
MEAN_ELEMENT_THEORY = SGP/SGP4

EPOCH          = 2026-01-24T11:13:07.000896
MEAN_MOTION    = 15.20438173
ECCENTRICITY   = .0015039
INCLINATION    = 97.4069
RA_OF_ASC_NODE = 101.4654
ARG_OF_PERICENTER = 147.1877
MEAN_ANOMALY   = 213.0295

EPHEMERIS_TYPE = 0
CLASSIFICATION_TYPE = U
NORAD_CAT_ID   = 67278
ELEMENT_SET_NO = 999
REV_AT_EPOCH   = 410
BSTAR          = .53662E-3
MEAN_MOTION_DOT = .11681E-3
MEAN_MOTION_DDOT = 0

CCSDS_OMM_VERS = 2.0
CREATION_DATE  = 
ORIGINATOR     = 

OBJECT_NAME    = GALAPAGOS-UTE-SWSU
OBJECT_ID      = 2025-313AH
CENTER_NAME    = EARTH
REF_FRAME      = TEME
TIME_SYSTEM    = UTC
MEAN_ELEMENT_THEORY = SGP/SGP4

EPOCH          = 2026-01-24T11:11:32.695296
MEAN_MOTION    = 15.20504538
ECCENTRICITY   = .001568
INCLINATION    = 97.4079
RA_OF_ASC_NODE = 101.4705
ARG_OF_PERICENTER = 143.9549
MEAN_ANOMALY   = 216.2747

EPHEMERIS_TYPE = 0
CLASSIFICATION_TYPE = U
NORAD_CAT_ID   = 67279
ELEMENT_SET_NO = 999
REV_AT_EPOCH   = 409
BSTAR          = .61838E-3
MEAN_MOTION_DOT = .13505E-3
MEAN_MOTION_DDOT = 0

CCSDS_OMM_VERS = 2.0
CREATION_DATE  = 
ORIGINATOR     = 

OBJECT_NAME    = 2025-313AJ
OBJECT_ID      = 2025-313AJ
CENTER_NAME    = EARTH
REF_FRAME      = TEME
TIME_SYSTEM    = UTC
MEAN_ELEMENT_THEORY = SGP/SGP4

EPOCH          = 2026-01-24T04:44:31.563456
MEAN_MOTION    = 15.20737610
ECCENTRICITY   = .0014614
INCLINATION    = 97.4150
RA_OF_ASC_NODE = 101.2312
ARG_OF_PERICENTER = 141.7279
MEAN_ANOMALY   = 218.4996

EPHEMERIS_TYPE = 0
CLASSIFICATION_TYPE = U
NORAD_CAT_ID   = 67280
ELEMENT_SET_NO = 999
REV_AT_EPOCH   = 405
BSTAR          = .45072E-3
MEAN_MOTION_DOT = .9883E-4
MEAN_MOTION_DDOT = 0

CCSDS_OMM_VERS = 2.0
CREATION_DATE  = 
ORIGINATOR     = 

OBJECT_NAME    = 2025-313AK
OBJECT_ID      = 2025-313AK
CENTER_NAME    = EARTH
REF_FRAME      = TEME
TIME_SYSTEM    = UTC
MEAN_ELEMENT_THEORY = SGP/SGP4

EPOCH          = 2026-01-24T11:01:12.872064
MEAN_MOTION    = 15.20834648
ECCENTRICITY   = .0013356
INCLINATION    = 97.4034
RA_OF_ASC_NODE = 101.4620
ARG_OF_PERICENTER = 139.8580
MEAN_ANOMALY   = 220.3645

EPHEMERIS_TYPE = 0
CLASSIFICATION_TYPE = U
NORAD_CAT_ID   = 67281
ELEMENT_SET_NO = 999
REV_AT_EPOCH   = 409
BSTAR          = .43717E-3
MEAN_MOTION_DOT = .9606E-4
MEAN_MOTION_DDOT = 0

